{
  "type": "FeatureCollection",
  "features": [
    {
      "type": "Feature",
      "properties": {
        "norad_id": 35105,
        "name": "FENGYUN 1C DEB",
        "group": "fengyun-1c-debris",
        "lat": 31.54793358242927,
        "lon": 152.41295188705223,
        "alt_km": 739.3329712858058,
        "timestamp": "2025-12-11T20:41:15.368099+00:00",
        "meta_object_name": "FENGYUN 1C DEB",
        "meta_object_id": "1999-025DKH",
        "meta_epoch": "2025-12-11T05:03:49.389120",
        "meta_mean_motion": 14.45371375,
        "meta_eccentricity": 0.01127969,
        "meta_inclination": 98.9435,
        "meta_ra_of_asc_node": 326.1792,
        "meta_arg_of_pericenter": 58.9643,
        "meta_mean_anomaly": 302.2564,
        "meta_ephemeris_type": 0,
        "meta_classification_type": "U",
        "meta_norad_cat_id": 35105,
        "meta_element_set_no": 999,
        "meta_rev_at_epoch": 94471,
        "meta_bstar": 0.00053947764,
        "meta_mean_motion_dot": 1.999e-05,
        "meta_mean_motion_ddot": 0,
        "tle_line1": "1 35105U 99025DKH 25345.21098830  .00001999  00000+0  53948-3 0  9998",
        "tle_line2": "2 35105  98.9435 326.1792 0112796  58.9643 302.2564 14.45371375944712"
      },
      "geometry": {
        "type": "Point",
        "coordinates": [
          152.41295188705223,
          31.54793358242927
        ]
      }
    },
    {
      "type": "Feature",
      "properties": {
        "norad_id": 35108,
        "name": "FENGYUN 1C DEB",
        "group": "fengyun-1c-debris",
        "lat": -57.09255223208264,
        "lon": 147.66495634575057,
        "alt_km": 974.3838420555785,
        "timestamp": "2025-12-11T20:41:15.368109+00:00",
        "meta_object_name": "FENGYUN 1C DEB",
        "meta_object_id": "1999-025DKL",
        "meta_epoch": "2025-12-08T06:13:34.793472",
        "meta_mean_motion": 14.06905654,
        "meta_eccentricity": 0.01350645,
        "meta_inclination": 98.7996,
        "meta_ra_of_asc_node": 338.0081,
        "meta_arg_of_pericenter": 74.0763,
        "meta_mean_anomaly": 287.5242,
        "meta_ephemeris_type": 0,
        "meta_classification_type": "U",
        "meta_norad_cat_id": 35108,
        "meta_element_set_no": 999,
        "meta_rev_at_epoch": 89175,
        "meta_bstar": 0.00049382125,
        "meta_mean_motion_dot": 8.52e-06,
        "meta_mean_motion_ddot": 0,
        "tle_line1": "1 35108U 99025DKL 25342.25943048  .00000852  00000+0  49382-3 0  9996",
        "tle_line2": "2 35108  98.7996 338.0081 0135064  74.0763 287.5242 14.06905654891756"
      },
      "geometry": {
        "type": "Point",
        "coordinates": [
          147.66495634575057,
          -57.09255223208264
        ]
      }
    },
    {
      "type": "Feature",
      "properties": {
        "norad_id": 35109,
        "name": "FENGYUN 1C DEB",
        "group": "fengyun-1c-debris",
        "lat": -10.445309253868409,
        "lon": -23.233441711687636,
        "alt_km": 750.8063957957975,
        "timestamp": "2025-12-11T20:41:15.368118+00:00",
        "meta_object_name": "FENGYUN 1C DEB",
        "meta_object_id": "1999-025DKM",
        "meta_epoch": "2025-12-11T10:35:45.124800",
        "meta_mean_motion": 14.20872751,
        "meta_eccentricity": 0.01534585,
        "meta_inclination": 98.6153,
        "meta_ra_of_asc_node": 334.7549,
        "meta_arg_of_pericenter": 38.1322,
        "meta_mean_anomaly": 323.0596,
        "meta_ephemeris_type": 0,
        "meta_classification_type": "U",
        "meta_norad_cat_id": 35109,
        "meta_element_set_no": 999,
        "meta_rev_at_epoch": 64141,
        "meta_bstar": 0.00049349524,
        "meta_mean_motion_dot": 1.159e-05,
        "meta_mean_motion_ddot": 0,
        "tle_line1": "1 35109U 99025DKM 25345.44149450  .00001159  00000+0  49350-3 0  9992",
        "tle_line2": "2 35109  98.6153 334.7549 0153458  38.1322 323.0596 14.20872751641413"
      },
      "geometry": {
        "type": "Point",
        "coordinates": [
          -23.233441711687636,
          -10.445309253868409
        ]
      }
    },
    {
      "type": "Feature",
      "properties": {
        "norad_id": 35111,
        "name": "FENGYUN 1C DEB",
        "group": "fengyun-1c-debris",
        "lat": -53.6895654471494,
        "lon": -128.65681613459373,
        "alt_km": 847.6889005314442,
        "timestamp": "2025-12-11T20:41:15.368128+00:00",
        "meta_object_name": "FENGYUN 1C DEB",
        "meta_object_id": "1999-025DKP",
        "meta_epoch": "2025-12-07T11:45:43.563456",
        "meta_mean_motion": 14.10954545,
        "meta_eccentricity": 0.00216077,
        "meta_inclination": 99.4664,
        "meta_ra_of_asc_node": 59.8627,
        "meta_arg_of_pericenter": 235.1352,
        "meta_mean_anomaly": 124.7786,
        "meta_ephemeris_type": 0,
        "meta_classification_type": "U",
        "meta_norad_cat_id": 35111,
        "meta_element_set_no": 999,
        "meta_rev_at_epoch": 64070,
        "meta_bstar": 0.00078112566,
        "meta_mean_motion_dot": 1.356e-05,
        "meta_mean_motion_ddot": 0,
        "tle_line1": "1 35111U 99025DKP 25341.49008754  .00001356  00000+0  78113-3 0  9995",
        "tle_line2": "2 35111  99.4664  59.8627 0021607 235.1352 124.7786 14.10954545640705"
      },
      "geometry": {
        "type": "Point",
        "coordinates": [
          -128.65681613459373,
          -53.6895654471494
        ]
      }
    },
    {
      "type": "Feature",
      "properties": {
        "norad_id": 35116,
        "name": "FENGYUN 1C DEB",
        "group": "fengyun-1c-debris",
        "lat": 72.60170692846991,
        "lon": 2.731229591990832,
        "alt_km": 761.9651930372829,
        "timestamp": "2025-12-11T20:41:15.368138+00:00",
        "meta_object_name": "FENGYUN 1C DEB",
        "meta_object_id": "1999-025DKU",
        "meta_epoch": "2025-12-10T22:26:07.135584",
        "meta_mean_motion": 14.25062569,
        "meta_eccentricity": 0.0059356,
        "meta_inclination": 98.6618,
        "meta_ra_of_asc_node": 30.9255,
        "meta_arg_of_pericenter": 54.5271,
        "meta_mean_anomaly": 306.1428,
        "meta_ephemeris_type": 0,
        "meta_classification_type": "U",
        "meta_norad_cat_id": 35116,
        "meta_element_set_no": 999,
        "meta_rev_at_epoch": 59934,
        "meta_bstar": 0.0014341,
        "meta_mean_motion_dot": 3.381e-05,
        "meta_mean_motion_ddot": 0,
        "tle_line1": "1 35116U 99025DKU 25344.93480481  .00003381  00000+0  14341-2 0  9995",
        "tle_line2": "2 35116  98.6618  30.9255 0059356  54.5271 306.1428 14.25062569599346"
      },
      "geometry": {
        "type": "Point",
        "coordinates": [
          2.731229591990832,
          72.60170692846991
        ]
      }
    },
    {
      "type": "Feature",
      "properties": {
        "norad_id": 35121,
        "name": "FENGYUN 1C DEB",
        "group": "fengyun-1c-debris",
        "lat": -41.666868364528554,
        "lon": -143.3497416773882,
        "alt_km": 972.439754332433,
        "timestamp": "2025-12-11T20:41:15.368148+00:00",
        "meta_object_name": "FENGYUN 1C DEB",
        "meta_object_id": "1999-025DKZ",
        "meta_epoch": "2025-11-23T20:23:41.984736",
        "meta_mean_motion": 14.04733583,
        "meta_eccentricity": 0.0157971,
        "meta_inclination": 98.3025,
        "meta_ra_of_asc_node": 192.694,
        "meta_arg_of_pericenter": 150.2058,
        "meta_mean_anomaly": 210.8223,
        "meta_ephemeris_type": 0,
        "meta_classification_type": "U",
        "meta_norad_cat_id": 35121,
        "meta_element_set_no": 999,
        "meta_rev_at_epoch": 60826,
        "meta_bstar": 0.00039097454,
        "meta_mean_motion_dot": 6.63e-06,
        "meta_mean_motion_ddot": 0,
        "tle_line1": "1 35121U 99025DKZ 25327.84979149  .00000663  00000+0  39097-3 0  9992",
        "tle_line2": "2 35121  98.3025 192.6940 0157971 150.2058 210.8223 14.04733583608261"
      },
      "geometry": {
        "type": "Point",
        "coordinates": [
          -143.3497416773882,
          -41.666868364528554
        ]
      }
    },
    {
      "type": "Feature",
      "properties": {
        "norad_id": 35122,
        "name": "FENGYUN 1C DEB",
        "group": "fengyun-1c-debris",
        "lat": -30.418462816207125,
        "lon": 179.15995126198686,
        "alt_km": 839.6652896181295,
        "timestamp": "2025-12-11T20:41:15.368158+00:00",
        "meta_object_name": "FENGYUN 1C DEB",
        "meta_object_id": "1999-025DLA",
        "meta_epoch": "2025-12-08T18:40:35.201280",
        "meta_mean_motion": 14.14118266,
        "meta_eccentricity": 0.00251505,
        "meta_inclination": 98.6722,
        "meta_ra_of_asc_node": 1.3085,
        "meta_arg_of_pericenter": 168.8347,
        "meta_mean_anomaly": 191.339,
        "meta_ephemeris_type": 0,
        "meta_classification_type": "U",
        "meta_norad_cat_id": 35122,
        "meta_element_set_no": 999,
        "meta_rev_at_epoch": 63811,
        "meta_bstar": 0.00051682639,
        "meta_mean_motion_dot": 9.44e-06,
        "meta_mean_motion_ddot": 0,
        "tle_line1": "1 35122U 99025DLA 25342.77818520  .00000944  00000+0  51683-3 0  9994",
        "tle_line2": "2 35122  98.6722   1.3085 0025150 168.8347 191.3390 14.14118266638115"
      },
      "geometry": {
        "type": "Point",
        "coordinates": [
          179.15995126198686,
          -30.418462816207125
        ]
      }
    }
  ]
}